ONEWEB-0395             
1 50475U 21132G   24282.38396707  .00000546  00000+0  15047-2 0  9994
2 50475  87.8926 143.9570 0001519  65.5214 294.6072 13.11417483134877
ONEWEB-0396             
1 50476U 21132H   24282.51909201 -.00000018  00000+0 -78167-4 0  9999
2 50476  87.9057  98.1885 0001490  90.1254 270.0049 13.18684845140368
ONEWEB-0397             
1 50477U 21132J   24282.53333482  .00000132  00000+0  30255-3 0  9994
2 50477  87.9055  98.1872 0001522  95.2977 264.8329 13.18687044140341
ONEWEB-0398             
1 50478U 21132K   24282.58061597 -.00000421  00000+0 -12250-2 0  9992
2 50478  87.8932 143.8927 0001867  66.3783 293.7541 13.11419503134795
ONEWEB-0399             
1 50479U 21132L   24282.56704558 -.00000489  00000+0 -14166-2 0  9994
2 50479  87.8926 143.9142 0001301  85.7950 274.3327 13.11413942134780
ONEWEB-0400             
1 50480U 21132M   24282.51276841  .00000020  00000+0  18776-4 0  9992
2 50480  87.9050  98.1902 0001825  83.6559 276.4781 13.18686151140335
ONEWEB-0401             
1 50481U 21132N   24282.55544576 -.00000032  00000+0 -11445-3 0  9990
2 50481  87.9047  98.1772 0001637  98.5812 261.5505 13.18685518140341
ONEWEB-0402             
1 50482U 21132P   24282.52068652  .00000059  00000+0  11572-3 0  9992
2 50482  87.9050  98.1817 0001862 114.3766 245.7560 13.18687557140363
